{"fetched_at":"2026-07-11T09:24:42.136Z","source":"https://celestrak.org/NORAD/elements/gp.php?NAME=SPOT&FORMAT=JSON","constellation":"spot","records":[{"OBJECT_NAME":"SPOT 6","OBJECT_ID":"2012-047A","EPOCH":"2026-07-11T03:21:37.771200","CLASSIFICATION_TYPE":"U","MEAN_MOTION":14.58537025,"ECCENTRICITY":0.0001137,"INCLINATION":98.2111,"RA_OF_ASC_NODE":259.1672,"ARG_OF_PERICENTER":83.3658,"MEAN_ANOMALY":276.7671,"EPHEMERIS_TYPE":0,"NORAD_CAT_ID":38755,"ELEMENT_SET_NO":999,"REV_AT_EPOCH":73654,"BSTAR":-0.0000012665,"MEAN_MOTION_DOT":-5.2e-7,"MEAN_MOTION_DDOT":0},{"OBJECT_NAME":"SPOT 7","OBJECT_ID":"2014-034A","EPOCH":"2026-07-11T03:39:42.016032","CLASSIFICATION_TYPE":"U","MEAN_MOTION":14.60978845,"ECCENTRICITY":0.0001555,"INCLINATION":98.0621,"RA_OF_ASC_NODE":254.0254,"ARG_OF_PERICENTER":97.7303,"MEAN_ANOMALY":262.4075,"EPHEMERIS_TYPE":0,"NORAD_CAT_ID":40053,"ELEMENT_SET_NO":999,"REV_AT_EPOCH":64063,"BSTAR":0.000048341,"MEAN_MOTION_DOT":0.00000192,"MEAN_MOTION_DDOT":0}]}
