SPOT 6                  
1 38755U 12047A   26192.14002050 -.00000052  00000+0 -12665-5 0  9997
2 38755  98.2111 259.1672 0001137  83.3658 276.7671 14.58537025736540
SPOT 7                  
1 40053U 14034A   26192.15256963  .00000192  00000+0  48341-4 0  9996
2 40053  98.0621 254.0254 0001555  97.7303 262.4075 14.60978845640634
